{
  "type": "FeatureCollection",
  "features": [
    {
      "type": "Feature",
      "properties": {
        "norad_id": 64751,
        "name": "PROGRESS-MS 31",
        "group": "stations",
        "lat": 23.322662827828093,
        "lon": -43.23075568419818,
        "alt_km": 415.00793674172655,
        "timestamp": "2025-12-09T20:37:08.072921+00:00",
        "meta_object_name": "PROGRESS-MS 31",
        "meta_object_id": "2025-146A",
        "meta_epoch": "2025-12-09T12:14:10.839552",
        "meta_mean_motion": 15.49447168,
        "meta_eccentricity": 0.00034,
        "meta_inclination": 51.631,
        "meta_ra_of_asc_node": 158.4724,
        "meta_arg_of_pericenter": 223.8185,
        "meta_mean_anomaly": 136.2534,
        "meta_ephemeris_type": 0,
        "meta_classification_type": "U",
        "meta_norad_cat_id": 64751,
        "meta_element_set_no": 999,
        "meta_rev_at_epoch": 675,
        "meta_bstar": 0.00026025969,
        "meta_mean_motion_dot": 0.00014141,
        "meta_mean_motion_ddot": 0,
        "tle_line1": "1 64751U 25146A   25343.50984768  .00014141  00000+0  26026-3 0  9994",
        "tle_line2": "2 64751  51.6310 158.4724 0003400 223.8185 136.2534 15.49447168  6759"
      },
      "geometry": {
        "type": "Point",
        "coordinates": [
          -43.23075568419818,
          23.322662827828093
        ]
      }
    },
    {
      "type": "Feature",
      "properties": {
        "norad_id": 64786,
        "name": "TIANZHOU-9",
        "group": "stations",
        "lat": 18.08319089150882,
        "lon": -167.50663329957933,
        "alt_km": 392.5107600878455,
        "timestamp": "2025-12-09T20:37:08.072931+00:00",
        "meta_object_name": "TIANZHOU-9",
        "meta_object_id": "2025-149A",
        "meta_epoch": "2025-12-09T13:49:14.456064",
        "meta_mean_motion": 15.58965688,
        "meta_eccentricity": 0.00089597,
        "meta_inclination": 41.4682,
        "meta_ra_of_asc_node": 35.9133,
        "meta_arg_of_pericenter": 5.1145,
        "meta_mean_anomaly": 354.9784,
        "meta_ephemeris_type": 0,
        "meta_classification_type": "U",
        "meta_norad_cat_id": 64786,
        "meta_element_set_no": 999,
        "meta_rev_at_epoch": 25530,
        "meta_bstar": 0.00041052725,
        "meta_mean_motion_dot": 0.00032682,
        "meta_mean_motion_ddot": 0,
        "tle_line1": "1 64786U 25149A   25343.57586176  .00032682  00000+0  41053-3 0  9990",
        "tle_line2": "2 64786  41.4682  35.9133 0008959   5.1145 354.9784 15.58965688255305"
      },
      "geometry": {
        "type": "Point",
        "coordinates": [
          -167.50663329957933,
          18.08319089150882
        ]
      }
    },
    {
      "type": "Feature",
      "properties": {
        "norad_id": 65077,
        "name": "CREW DRAGON 11",
        "group": "stations",
        "lat": 23.322661874939406,
        "lon": -43.23075473276992,
        "alt_km": 415.0079368446022,
        "timestamp": "2025-12-09T20:37:08.072941+00:00",
        "meta_object_name": "CREW DRAGON 11",
        "meta_object_id": "2025-166A",
        "meta_epoch": "2025-12-09T12:14:10.839552",
        "meta_mean_motion": 15.49447168,
        "meta_eccentricity": 0.00034,
        "meta_inclination": 51.631,
        "meta_ra_of_asc_node": 158.4724,
        "meta_arg_of_pericenter": 223.8185,
        "meta_mean_anomaly": 136.2534,
        "meta_ephemeris_type": 0,
        "meta_classification_type": "U",
        "meta_norad_cat_id": 65077,
        "meta_element_set_no": 999,
        "meta_rev_at_epoch": 214,
        "meta_bstar": 0.00026025969,
        "meta_mean_motion_dot": 0.00014141,
        "meta_mean_motion_ddot": 0,
        "tle_line1": "1 65077U 25166A   25343.50984768  .00014141  00000+0  26026-3 0  9998",
        "tle_line2": "2 65077  51.6310 158.4724 0003400 223.8185 136.2534 15.49447168  2140"
      },
      "geometry": {
        "type": "Point",
        "coordinates": [
          -43.23075473276992,
          23.322661874939406
        ]
      }
    },
    {
      "type": "Feature",
      "properties": {
        "norad_id": 65304,
        "name": "DRAGON CRS-33",
        "group": "stations",
        "lat": 23.32266139849582,
        "lon": -43.23075425705656,
        "alt_km": 415.00793689604143,
        "timestamp": "2025-12-09T20:37:08.072951+00:00",
        "meta_object_name": "DRAGON CRS-33",
        "meta_object_id": "2025-186A",
        "meta_epoch": "2025-12-09T12:14:10.839552",
        "meta_mean_motion": 15.49447168,
        "meta_eccentricity": 0.00034,
        "meta_inclination": 51.631,
        "meta_ra_of_asc_node": 158.4724,
        "meta_arg_of_pericenter": 223.8185,
        "meta_mean_anomaly": 136.2534,
        "meta_ephemeris_type": 0,
        "meta_classification_type": "U",
        "meta_norad_cat_id": 65304,
        "meta_element_set_no": 999,
        "meta_rev_at_epoch": 11,
        "meta_bstar": 0.00026025969,
        "meta_mean_motion_dot": 0.00014141,
        "meta_mean_motion_ddot": 0,
        "tle_line1": "1 65304U 25186A   25343.50984768  .00014141  00000+0  26026-3 0  9993",
        "tle_line2": "2 65304  51.6310 158.4724 0003400 223.8185 136.2534 15.49447168   118"
      },
      "geometry": {
        "type": "Point",
        "coordinates": [
          -43.23075425705656,
          23.32266139849582
        ]
      }
    },
    {
      "type": "Feature",
      "properties": {
        "norad_id": 65586,
        "name": "PROGRESS-MS 32",
        "group": "stations",
        "lat": 23.32266092205191,
        "lon": -43.23075378134289,
        "alt_km": 415.0079369474779,
        "timestamp": "2025-12-09T20:37:08.072961+00:00",
        "meta_object_name": "PROGRESS-MS 32",
        "meta_object_id": "2025-204A",
        "meta_epoch": "2025-12-09T12:14:10.839552",
        "meta_mean_motion": 15.49447168,
        "meta_eccentricity": 0.00034,
        "meta_inclination": 51.631,
        "meta_ra_of_asc_node": 158.4724,
        "meta_arg_of_pericenter": 223.8185,
        "meta_mean_anomaly": 136.2534,
        "meta_ephemeris_type": 0,
        "meta_classification_type": "U",
        "meta_norad_cat_id": 65586,
        "meta_element_set_no": 999,
        "meta_rev_at_epoch": 27,
        "meta_bstar": 0.00026025969,
        "meta_mean_motion_dot": 0.00014141,
        "meta_mean_motion_ddot": 0,
        "tle_line1": "1 65586U 25204A   25343.50984768  .00014141  00000+0  26026-3 0  9996",
        "tle_line2": "2 65586  51.6310 158.4724 0003400 223.8185 136.2534 15.49447168   277"
      },
      "geometry": {
        "type": "Point",
        "coordinates": [
          -43.23075378134289,
          23.32266092205191
        ]
      }
    },
    {
      "type": "Feature",
      "properties": {
        "norad_id": 65616,
        "name": "CYGNUS NG-23",
        "group": "stations",
        "lat": 23.3226604456074,
        "lon": -43.23075330562862,
        "alt_km": 415.0079369989171,
        "timestamp": "2025-12-09T20:37:08.072971+00:00",
        "meta_object_name": "CYGNUS NG-23",
        "meta_object_id": "2025-208A",
        "meta_epoch": "2025-12-09T12:14:10.839552",
        "meta_mean_motion": 15.49447168,
        "meta_eccentricity": 0.00034,
        "meta_inclination": 51.631,
        "meta_ra_of_asc_node": 158.4724,
        "meta_arg_of_pericenter": 223.8185,
        "meta_mean_anomaly": 136.2534,
        "meta_ephemeris_type": 0,
        "meta_classification_type": "U",
        "meta_norad_cat_id": 65616,
        "meta_element_set_no": 999,
        "meta_rev_at_epoch": 22,
        "meta_bstar": 0.00026025969,
        "meta_mean_motion_dot": 0.00014141,
        "meta_mean_motion_ddot": 0,
        "tle_line1": "1 65616U 25208A   25343.50984768  .00014141  00000+0  26026-3 0  9994",
        "tle_line2": "2 65616  51.6310 158.4724 0003400 223.8185 136.2534 15.49447168   226"
      },
      "geometry": {
        "type": "Point",
        "coordinates": [
          -43.23075330562862,
          23.3226604456074
        ]
      }
    },
    {
      "type": "Feature",
      "properties": {
        "norad_id": 65729,
        "name": "DRAGONFLY",
        "group": "stations",
        "lat": -50.83984900814995,
        "lon": 47.167611024605996,
        "alt_km": 357.2767179864222,
        "timestamp": "2025-12-09T20:37:08.072982+00:00",
        "meta_object_name": "DRAGONFLY",
        "meta_object_id": "1998-067XH",
        "meta_epoch": "2025-12-09T11:52:26.095872",
        "meta_mean_motion": 15.70499103,
        "meta_eccentricity": 0.00065374,
        "meta_inclination": 51.6245,
        "meta_ra_of_asc_node": 152.3636,
        "meta_arg_of_pericenter": 255.9884,
        "meta_mean_anomaly": 104.0387,
        "meta_ephemeris_type": 0,
        "meta_classification_type": "U",
        "meta_norad_cat_id": 65729,
        "meta_element_set_no": 999,
        "meta_rev_at_epoch": 1265,
        "meta_bstar": 0.0014915016,
        "meta_mean_motion_dot": 0.00190953,
        "meta_mean_motion_ddot": 0,
        "tle_line1": "1 65729U 98067XH  25343.49474648  .00190953  00000+0  14915-2 0  9990",
        "tle_line2": "2 65729  51.6245 152.3636 0006537 255.9884 104.0387 15.70499103 12658"
      },
      "geometry": {
        "type": "Point",
        "coordinates": [
          47.167611024605996,
          -50.83984900814995
        ]
      }
    }
  ]
}